[{"OBJECT_NAME":"SITRO-AIS 22","OBJECT_ID":"2024-199F","EPOCH":"2026-03-09T22:54:34.366752","MEAN_MOTION":14.95387083,"ECCENTRICITY":0.00134988,"INCLINATION":97.3323,"RA_OF_ASC_NODE":273.3747,"ARG_OF_PERICENTER":41.8157,"MEAN_ANOMALY":318.4094,"EPHEMERIS_TYPE":0,"CLASSIFICATION_TYPE":"U","NORAD_CAT_ID":61740,"ELEMENT_SET_NO":999,"REV_AT_EPOCH":11708,"BSTAR":0.00031759382,"MEAN_MOTION_DOT":3.46e-5,"MEAN_MOTION_DDOT":0},{"OBJECT_NAME":"STARLINK-34079","OBJECT_ID":"2025-102S","EPOCH":"2026-03-09T12:58:44.274144","MEAN_MOTION":14.9833129,"ECCENTRICITY":0.00033704,"INCLINATION":70.0012,"RA_OF_ASC_NODE":114.6772,"ARG_OF_PERICENTER":271.9361,"MEAN_ANOMALY":88.1413,"EPHEMERIS_TYPE":0,"CLASSIFICATION_TYPE":"U","NORAD_CAT_ID":64038,"ELEMENT_SET_NO":999,"REV_AT_EPOCH":4603,"BSTAR":0.00038216764,"MEAN_MOTION_DOT":4.47e-5,"MEAN_MOTION_DDOT":0}]
